NORAD_CAT_ID,OBJECT_NAME,OBJECT_TYPE,EPOCH,MEAN_MOTION,ECCENTRICITY,INCLINATION,RA_OF_ASC_NODE,ARG_OF_PERICENTER,MEAN_ANOMALY,BSTAR,MEAN_MOTION_DOT,MEAN_MOTION_DDOT,TLE_LINE0,TLE_LINE1,TLE_LINE2,SEMIMAJOR_AXIS,PERIOD,APOGEE,PERIGEE,DECAYED
49747.0,STARLINK-3247,PAYLOAD,2021-12-20 14:00:01,15.40460485,0.0001639,53.2148,234.1697,41.9151,234.0265,0.0020998,0.00086933,0.0,0 STARLINK-3247,1 49747U 21115Z   21354.58334491  .00086933  00000-0  20998-2 0  9992,2 49747  53.2148 234.1697 0001639  41.9151 234.0265 15.40460485  3178,6822.886,93.479,445.87,443.633,0.0
49747.0,STARLINK-3247,PAYLOAD,2021-12-20 20:35:33,15.4049352,0.0001838,53.2151,232.876,47.0292,313.0868,0.00026057,0.00010338,0.0,0 STARLINK-3247,1 49747U 21115Z   21354.85802774  .00010338  00000-0  26057-3 0  9995,2 49747  53.2151 232.8760 0001838  47.0292 313.0868 15.40493520  2916,6822.7890000000025,93.477,445.908,443.4,0.0
49747.0,STARLINK-3247,PAYLOAD,2021-12-20 22:00:01,15.40515187,0.0001845,53.2147,232.6008,38.8584,286.7717,-0.00050612,-0.00021197,0.0,0 STARLINK-3247,1 49747U 21115Z   21354.91668981 -.00021197  00000-0 -50612-3 0  9993,2 49747  53.2147 232.6008 0001845  38.8584 286.7717 15.40515187  4032,6822.725,93.475,445.849,443.331,0.0
49747.0,STARLINK-3247,PAYLOAD,2021-12-21 14:00:01,15.4041176,0.0001845,53.2142,229.4577,47.0523,17.7695,9.6409e-05,3.557e-05,0.0,0 STARLINK-3247,1 49747U 21115Z   21355.58334491  .00003557  00000-0  96409-4 0  9996,2 49747  53.2142 229.4577 0001845  47.0523  17.7695 15.40411760  4137,6823.03,93.481,446.154,443.636,0.0
49747.0,STARLINK-3247,PAYLOAD,2021-12-21 22:00:00,15.40406648,0.000198,53.214,227.8891,42.2476,72.0978,0.00033534,0.00013386,0.0,0 STARLINK-3247,1 49747U 21115Z   21355.91667824  .00013386  00000-0  33534-3 0  9992,2 49747  53.2140 227.8891 0001980  42.2476  72.0978 15.40406648  3383,6823.045,93.482,446.261,443.559,0.0
49747.0,STARLINK-3247,PAYLOAD,2021-12-22 14:00:01,15.40443345,0.0001779,53.2135,224.7462,47.1003,166.3428,0.00098795,0.00040416,0.0,0 STARLINK-3247,1 49747U 21115Z   21356.58334491  .00040416  00000-0  98795-3 0  9991,2 49747  53.2135 224.7462 0001779  47.1003 166.3428 15.40443345  3486,6822.937,93.48,446.016,443.588,0.0
49747.0,STARLINK-3247,PAYLOAD,2021-12-22 20:00:01,15.40475129,0.0001854,53.2135,223.5696,42.4377,118.193,-0.00088932,-0.00036817,0.0,0 STARLINK-3247,1 49747U 21115Z   21356.83334491 -.00036817  00000-0 -88932-3 0  9993,2 49747  53.2135 223.5696 0001854  42.4377 118.1930 15.40475129  4320,6822.843000000003,93.478,445.973,443.443,0.0
49747.0,STARLINK-3247,PAYLOAD,2021-12-22 22:00:00,15.40452195,0.0001923,53.2134,223.1775,41.0961,221.9398,0.00011535,4.341e-05,0.0,0 STARLINK-3247,1 49747U 21115Z   21356.91667824  .00004341  00000-0  11535-3 0  9991,2 49747  53.2134 223.1775 0001923  41.0961 221.9398 15.40452195  3535,6822.911,93.479,446.088,443.464,0.0
49747.0,STARLINK-3247,PAYLOAD,2021-12-23 04:00:01,15.40471627,0.000187,53.2131,221.9995,37.7811,172.5004,-0.00030836,-0.00013067,0.0,0 STARLINK-3247,1 49747U 21115Z   21357.16668981 -.00013067  00000-0 -30836-3 0  9996,2 49747  53.2131 221.9995 0001870  37.7811 172.5004 15.40471627  4378,6822.853,93.478,445.994,443.443,0.0
49747.0,STARLINK-3247,PAYLOAD,2021-12-23 14:00:01,15.40461884,0.000166,53.2134,220.0341,43.7429,318.4716,0.00049259,0.00019907,0.0,0 STARLINK-3247,1 49747U 21115Z   21357.58334491  .00019907  00000-0  49259-3 0  9994,2 49747  53.2134 220.0341 0001660  43.7429 318.4716 15.40461884  3649,6822.882,93.478,445.88,443.615,0.0
49747.0,STARLINK-3247,PAYLOAD,2021-12-23 22:00:00,15.40458719,0.000184,53.2135,218.4652,39.5885,12.2197,-0.00062227,-0.00025905,0.0,0 STARLINK-3247,1 49747U 21115Z   21357.91667824 -.00025905  00000-0 -62227-3 0  9997,2 49747  53.2135 218.4652 0001840  39.5885  12.2197 15.40458719  3651,6822.891,93.479,446.012,443.501,0.0
49747.0,STARLINK-3247,PAYLOAD,2021-12-24 06:00:00,15.40458843,0.0001763,53.2136,216.894,36.2522,65.1205,-0.0010498,-0.00043328,0.0,0 STARLINK-3247,1 49747U 21115Z   21358.25001157 -.00043328  00000-0 -10498-2 0  9997,2 49747  53.2136 216.8940 0001763  36.2522  65.1205 15.40458843  4544,6822.891,93.479,445.959,443.55300000000005,0.0
49747.0,STARLINK-3247,PAYLOAD,2021-12-24 14:00:01,15.40434109,0.0001675,53.214,215.3221,42.9745,107.9559,7.7512e-07,-3.71e-06,0.0,0 STARLINK-3247,1 49747U 21115Z   21358.58334491 -.00000371  00000-0  77512-6 0  9997,2 49747  53.2140 215.3221 0001675  42.9745 107.9559 15.40434109  3633,6822.964,93.48,445.972,443.686,0.0
49747.0,STARLINK-3247,PAYLOAD,2021-12-24 22:00:00,15.40415819,0.0001949,53.2142,213.7534,39.4068,161.08100000000005,0.00050872,0.00020542,0.0,0 STARLINK-3247,1 49747U 21115Z   21358.91667824  .00020542  00000-0  50872-3 0  9991,2 49747  53.2142 213.7534 0001949  39.4068 161.0810 15.40415819  4647,6823.018,93.481,446.213,443.55300000000005,0.0
49747.0,STARLINK-3247,PAYLOAD,2021-12-25 14:00:01,15.40485091,0.0001793,53.2148,210.6101,42.8657,256.7897,-0.00020344,-8.767e-05,0.0,0 STARLINK-3247,1 49747U 21115Z   21359.58334491 -.00008767  00000-0 -20344-3 0  9994,2 49747  53.2148 210.6101 0001793  42.8657 256.7897 15.40485091  4756,6822.814,93.477,445.902,443.455,0.0
49747.0,STARLINK-3247,PAYLOAD,2021-12-25 22:00:00,15.40460776,0.0002073,53.2149,209.0414,39.8004,309.4711,0.00018601,7.253e-05,0.0,0 STARLINK-3247,1 49747U 21115Z   21359.91667824  .00007253  00000-0  18601-3 0  9990,2 49747  53.2149 209.0414 0002073  39.8004 309.4711 15.40460776  3630,6822.885,93.479,446.165,443.336,0.0
49747.0,STARLINK-3247,PAYLOAD,2021-12-26 14:00:01,15.40465264,0.0001886,53.2151,205.8983,42.0921,46.3592,0.00032756,0.00013092,0.0,0 STARLINK-3247,1 49747U 21115Z   21360.58334491  .00013092  00000-0  32756-3 0  9991,2 49747  53.2151 205.8983 0001886  42.0921  46.3592 15.40465264  3634,6822.871999999999,93.478,446.024,443.45,0.0
49747.0,STARLINK-3247,PAYLOAD,2021-12-26 22:00:00,15.40444403,0.0002064,53.215,204.3297,36.299,101.7507,7.7087e-05,2.766e-05,0.0,0 STARLINK-3247,1 49747U 21115Z   21360.91667824  .00002766  00000-0  77087-4 0  9990,2 49747  53.2150 204.3297 0002064  36.2990 101.7507 15.40444403  4955,6822.934,93.48,446.207,443.391,0.0
49747.0,STARLINK-3247,PAYLOAD,2021-12-27 14:00:01,15.40457579,0.0001875,53.2147,201.1869,42.2191,194.9683,0.00038204,0.00015337,0.0,0 STARLINK-3247,1 49747U 21115Z   21361.58334491  .00015337  00000-0  38204-3 0  9990,2 49747  53.2147 201.1869 0001875  42.2191 194.9683 15.40457579  3619,6822.895,93.479,446.039,443.481,0.0
49747.0,STARLINK-3247,PAYLOAD,2021-12-27 22:00:00,15.40450325,0.0002122,53.2145,199.6182,37.6354,249.1472,0.00059818,0.00024265,0.0,0 STARLINK-3247,1 49747U 21115Z   21361.91667824  .00024265  00000-0  59818-3 0  9990,2 49747  53.2145 199.6182 0002122  37.6354 249.1472 15.40450325  3634,6822.916,93.479,446.229,443.333,0.0
49747.0,STARLINK-3247,PAYLOAD,2021-12-28 06:00:00,15.40494116,0.0001938,53.214,198.0463,38.0437,298.3288,-0.0016404,-0.00067346,0.0,0 STARLINK-3247,1 49747U 21115Z   21362.25001157 -.00067346  00000-0 -16404-2 0  9991,2 49747  53.2140 198.0463 0001938  38.0437 298.3288 15.40494116  5162,6822.7869999999975,93.477,445.974,443.33,0.0
49747.0,STARLINK-3247,PAYLOAD,2021-12-28 14:00:01,15.40463989,0.0001824,53.2142,196.4753,40.8289,345.1492,0.00019582,7.658e-05,0.0,0 STARLINK-3247,1 49747U 21115Z   21362.58334491  .00007658  00000-0  19582-3 0  9996,2 49747  53.2142 196.4753 0001824  40.8289 345.1492 15.40463989  5216,6822.876,93.478,445.985,443.496,0.0
49747.0,STARLINK-3247,PAYLOAD,2021-12-28 22:00:00,15.4045065,0.0002023,53.214,194.9065,35.9378,39.6371,0.00066008,0.00026827,0.0,0 STARLINK-3247,1 49747U 21115Z   21362.91667824  .00026827  00000-0  66008-3 0  9996,2 49747  53.2140 194.9065 0002023  35.9378  39.6371 15.40450650  3635,6822.915,93.479,446.161,443.4,0.0
49747.0,STARLINK-3247,PAYLOAD,2021-12-29 14:00:01,15.40461697,0.0001785,53.214,191.7635,39.7355,135.0804,0.00015496,5.974e-05,0.0,0 STARLINK-3247,1 49747U 21115Z   21363.58335648  .00005974  00000-0  15496-3 0  9991,2 49747  53.2140 191.7635 0001785  39.7355 135.0804 15.40461697  5361,6822.8830000000025,93.478,445.966,443.53,0.0
49747.0,STARLINK-3247,PAYLOAD,2021-12-29 21:01:49,15.40460218,0.0001885,53.2159,190.383,43.8584,316.2571,2.8091e-05,7.52e-06,0.0,0 STARLINK-3247,1 49747U 21115Z   21363.87627213  .00000752  00000-0  28091-4 0  9990,2 49747  53.2159 190.3830 0001885  43.8584 316.2571 15.40460218  4309,6822.887,93.479,446.038,443.466,0.0
49747.0,STARLINK-3247,PAYLOAD,2021-12-30 14:00:01,15.4045795,0.0001959,53.2142,187.0517,42.6714,280.8329,-0.00013082,-5.779e-05,0.0,0 STARLINK-3247,1 49747U 21115Z   21364.58334491 -.00005779  00000-0 -13082-3 0  9991,2 49747  53.2142 187.0517 0001959  42.6714 280.8329 15.40457950  3619,6822.894,93.479,446.095,443.422,0.0
49747.0,STARLINK-3247,PAYLOAD,2021-12-30 20:23:13,15.40451119,0.0001971,53.2161,185.7974,39.7603,320.3548,2.8514e-05,7.69e-06,0.0,0 STARLINK-3247,1 49747U 21115Z   21364.84946388  .00000769  00000-0  28514-4 0  9993,2 49747  53.2161 185.7974 0001971  39.7603 320.3548 15.40451119  4457,6822.9140000000025,93.479,446.124,443.434,0.0
49747.0,STARLINK-3247,PAYLOAD,2021-12-30 22:00:01,15.40431803,0.0002193,53.2142,185.4828,38.4544,334.7023,0.0010682,0.00043734,0.0,0 STARLINK-3247,1 49747U 21115Z   21364.91668981  .00043734  00000-0  10682-2 0  9995,2 49747  53.2142 185.4828 0002193  38.4544 334.7023 15.40431803  5577,6822.971,93.48,446.332,443.34,0.0
49747.0,STARLINK-3247,PAYLOAD,2021-12-31 11:57:29,15.40459865,0.000201,53.2162,182.7404,39.1547,320.9604,2.2202e-06,-3.12e-06,0.0,0 STARLINK-3247,1 49747U 21115Z   21365.49825394 -.00000312  00000-0  22202-5 0  9992,2 49747  53.2162 182.7404 0002010  39.1547 320.9604 15.40459865  5668,6822.888000000001,93.479,446.125,443.382,0.0
